NORAD_CAT_ID,OBJECT_NAME,OBJECT_TYPE,EPOCH,MEAN_MOTION,ECCENTRICITY,INCLINATION,RA_OF_ASC_NODE,ARG_OF_PERICENTER,MEAN_ANOMALY,BSTAR,MEAN_MOTION_DOT,MEAN_MOTION_DDOT,TLE_LINE0,TLE_LINE1,TLE_LINE2,SEMIMAJOR_AXIS,PERIOD,APOGEE,PERIGEE,DECAYED
55319.0,STARLINK-5196,PAYLOAD,2023-03-25 11:39:12,15.69890783,0.0003703,70.0024,246.28,286.4886,73.5903,6.3854e-05,7.462e-05,0.0,0 STARLINK-5196,1 55319U 23010BC  23084.48555790  .00007462  00000-0  63854-4 0  9998,2 55319  70.0024 246.2800 0003703 286.4886  73.5903 15.69890783 10706,6737.346,91.726,361.706,356.717,0.0
55319.0,STARLINK-5196,PAYLOAD,2023-03-25 20:49:41,15.69952407,0.0002885,70.0012,245.2043,275.1779,84.9088,0.00022008,0.00026362,0.0,0 STARLINK-5196,1 55319U 23010BC  23084.86784607  .00026362  00000-0  22008-3 0  9996,2 55319  70.0012 245.2043 0002885 275.1779  84.9088 15.69952407 10765,6737.17,91.723,360.979,357.091,0.0
55319.0,STARLINK-5196,PAYLOAD,2023-03-26 12:07:13,15.69935227,0.0002873,70.0054,243.4154,266.3028,93.7839,-2.0006e-05,-2.618e-05,0.0,0 STARLINK-5196,1 55319U 23010BC  23085.50501225 -.00002618  00000-0 -20006-4 0  9998,2 55319  70.0054 243.4154 0002873 266.3028  93.7839 15.69935227 10864,6737.219,91.724,361.02,357.149,0.0
55319.0,STARLINK-5196,PAYLOAD,2023-03-26 19:45:59,15.69902221,0.0003503,70.0032,242.518,286.3703,73.7107,-7.5404e-05,-9.261e-05,0.0,0 STARLINK-5196,1 55319U 23010BC  23085.82360679 -.00009261  00000-0 -75404-4 0  9992,2 55319  70.0032 242.5180 0003503 286.3703  73.7107 15.69902221 10912,6737.314,91.725,361.539,356.819,0.0
55319.0,STARLINK-5196,PAYLOAD,2023-03-27 03:24:42,15.69976764,0.0005149,70.0021,241.6225,271.9239,88.1367,0.00014908,0.00017797,0.0,0 STARLINK-5196,1 55319U 23010BC  23086.14216207  .00017797  00000-0  14908-3 0  9997,2 55319  70.0021 241.6225 0005149 271.9239  88.1367 15.69976764 10968,6737.1,91.721,362.434,355.497,0.0
55319.0,STARLINK-5196,PAYLOAD,2023-03-27 12:35:13,15.69924226,0.0003983,70.001,240.5469,281.6411,78.4338,-6.1708e-05,-7.627e-05,0.0,0 STARLINK-5196,1 55319U 23010BC  23086.52446671 -.00007627  00000-0 -61708-4 0  9993,2 55319  70.0010 240.5469 0003983 281.6411  78.4338 15.69924226 11022,6737.251,91.724,361.799,356.432,0.0
55319.0,STARLINK-5196,PAYLOAD,2023-03-27 20:13:59,15.69914219,0.0003997,70.0008,239.6506,281.3397,78.7349,-6.6306e-05,-8.176e-05,0.0,0 STARLINK-5196,1 55319U 23010BC  23086.84305315 -.00008176  00000-0 -66306-4 0  9996,2 55319  70.0008 239.6506 0003997 281.3397  78.7349 15.69914219 12268,6737.279,91.725,361.837,356.452,0.0
55319.0,STARLINK-5196,PAYLOAD,2023-03-28 03:52:46,15.69907099,0.0003511,70.002,238.7552,282.7842,77.2961,-6.8267e-05,-8.407e-05,0.0,0 STARLINK-5196,1 55319U 23010BC  23087.16164373 -.00008407  00000-0 -68267-4 0  9994,2 55319  70.0020 238.7552 0003511 282.7842  77.2961 15.69907099 11121,6737.3,91.725,361.53,356.799,0.0
55319.0,STARLINK-5196,PAYLOAD,2023-03-28 13:03:16,15.69922053,0.0004344,70.0021,237.6823,285.9322,74.1394,-7.4984e-06,-1.115e-05,0.0,0 STARLINK-5196,1 55319U 23010BC  23087.54394019 -.00001115  00000-0 -74984-5 0  9991,2 55319  70.0021 237.6823 0004344 285.9322  74.1394 15.69922053 12375,6737.257,91.724,362.049,356.195,0.0
55319.0,STARLINK-5196,PAYLOAD,2023-03-28 16:06:46,15.69930674,0.0004107,70.0012,237.3229,279.431,80.6421,1.2535e-05,1.295e-05,0.0,0 STARLINK-5196,1 55319U 23010BC  23087.67136964  .00001295  00000-0  12535-4 0  9998,2 55319  70.0012 237.3229 0004107 279.4310  80.6421 15.69930674 11206,6737.232,91.724,361.864,356.33,0.0
55319.0,STARLINK-5196,PAYLOAD,2023-03-28 19:10:16,15.69932524,0.0004057,70.0008,236.9643,280.4225,79.6513,1.6724e-05,1.799e-05,0.0,0 STARLINK-5196,1 55319U 23010BC  23087.79880285  .00001799  00000-0  16724-4 0  9996,2 55319  70.0008 236.9643 0004057 280.4225  79.6513 15.69932524 12417,6737.227,91.724,361.825,356.359,0.0
55319.0,STARLINK-5196,PAYLOAD,2023-03-29 11:59:33,15.69920346,0.0003777,70.0027,234.995,265.2448,94.8317,5.0065e-05,5.811e-05,0.0,0 STARLINK-5196,1 55319U 23010BC  23088.49969350  .00005811  00000-0  50065-4 0  9990,2 55319  70.0027 234.9950 0003777 265.2448  94.8317 15.69920346 12525,6737.262,91.724,361.672,356.582,0.0
55319.0,STARLINK-5196,PAYLOAD,2023-03-29 13:31:18,15.69919108,0.0003449,70.0012,234.8131,273.9822,86.0979,3.9948e-05,4.592e-05,0.0,0 STARLINK-5196,1 55319U 23010BC  23088.56341138  .00004592  00000-0  39948-4 0  9998,2 55319  70.0012 234.8131 0003449 273.9822  86.0979 15.69919108 11347,6737.265,91.724,361.454,356.807,0.0
55319.0,STARLINK-5196,PAYLOAD,2023-03-29 21:10:04,15.69920957,0.0003601,70.0007,233.9213,266.9632,93.1151,3.4167e-05,3.897e-05,0.0,0 STARLINK-5196,1 55319U 23010BC  23088.88199454  .00003897  00000-0  34167-4 0  9990,2 55319  70.0007 233.9213 0003601 266.9632  93.1151 15.69920957 12585,6737.26,91.724,361.551,356.699,0.0
55319.0,STARLINK-5196,PAYLOAD,2023-03-30 18:34:35,15.69929848,0.0003648,70.0002,231.4129,263.2333,96.8447,4.5114e-05,5.217e-05,0.0,0 STARLINK-5196,1 55319U 23010BC  23089.77402575  .00005217  00000-0  45114-4 0  9992,2 55319  70.0002 231.4129 0003648 263.2333  96.8447 15.69929848 11538,6737.235,91.724,361.557,356.642,0.0
55319.0,STARLINK-5196,PAYLOAD,2023-03-31 02:13:21,15.6992376,0.0003378,70.0016,230.517,263.7797,96.3014,1.379e-05,1.446e-05,0.0,0 STARLINK-5196,1 55319U 23010BC  23090.09261236  .00001446  00000-0  13790-4 0  9991,2 55319  70.0016 230.5170 0003378 263.7797  96.3014 15.69923760 11585,6737.252,91.724,361.393,356.841,0.0
55319.0,STARLINK-5196,PAYLOAD,2023-04-01 11:51:54,15.69926756,0.0003319,70.0021,226.5755,278.1008,81.9811,2.8856e-05,3.259e-05,0.0,0 STARLINK-5196,1 55319U 23010BC  23091.49438153  .00003259  00000-0  28856-4 0  9993,2 55319  70.0021 226.5755 0003319 278.1008  81.9811 15.69926756 11803,6737.244,91.724,361.345,356.872,0.0
55319.0,STARLINK-5196,PAYLOAD,2023-04-01 21:02:25,15.69931868,0.0003177,70.0006,225.5004,285.7407,74.3438,5.4842e-05,6.389e-05,0.0,0 STARLINK-5196,1 55319U 23010BC  23091.87668091  .00006389  00000-0  54842-4 0  9992,2 55319  70.0006 225.5004 0003177 285.7407  74.3438 15.69931868 13051,6737.229,91.724,361.234,356.954,0.0
55319.0,STARLINK-5196,PAYLOAD,2023-04-02 12:19:56,15.69924746,0.000296,70.0021,223.7079,292.9733,67.115,1.9318e-05,2.111e-05,0.0,0 STARLINK-5196,1 55319U 23010BC  23092.51384976  .00002111  00000-0  19318-4 0  9999,2 55319  70.0021 223.7079 0002960 292.9733  67.1150 15.69924746 11967,6737.249,91.724,361.109,357.12,0.0
55319.0,STARLINK-5196,PAYLOAD,2023-04-02 19:58:42,15.69919481,0.0002773,70.001,222.8101,281.4498,78.6386,-4.6507e-06,-7.71e-06,0.0,0 STARLINK-5196,1 55319U 23010BC  23092.83243612 -.00000771  00000-0 -46507-5 0  9998,2 55319  70.0010 222.8101 0002773 281.4498  78.6386 15.69919481 13201,6737.264,91.724,360.998,357.261,0.0
55319.0,STARLINK-5196,PAYLOAD,2023-04-03 02:05:43,15.69911317,0.0002864,70.0024,222.0973,272.8319,87.2549,2.222e-05,2.459e-05,0.0,0 STARLINK-5196,1 55319U 23010BC  23093.08730741  .00002459  00000-0  22220-4 0  9998,2 55319  70.0024 222.0973 0002864 272.8319  87.2549 15.69911317 12051,6737.288,91.725,361.082,357.223,0.0
55319.0,STARLINK-5196,PAYLOAD,2023-04-03 11:16:13,15.69921727,0.000281,70.0015,221.0217,255.5694,104.519,7.8768e-07,-1.18e-06,0.0,0 STARLINK-5196,1 55319U 23010BC  23093.46960392 -.00000118  00000-0  78768-6 0  9998,2 55319  70.0015 221.0217 0002810 255.5694 104.5190 15.69921727 13306,6737.258,91.724,361.016,357.23,0.0
55319.0,STARLINK-5196,PAYLOAD,2023-04-04 11:44:15,15.69927402,0.0003179,70.0007,218.1547,264.5566,95.5267,1.1559e-05,1.178e-05,0.0,0 STARLINK-5196,1 55319U 23010BC  23094.48906607  .00001178  00000-0  11559-4 0  9999,2 55319  70.0007 218.1547 0003179 264.5566  95.5267 15.69927402 12272,6737.242,91.724,361.248,356.965,0.0
55319.0,STARLINK-5196,PAYLOAD,2023-04-04 20:54:46,15.69924771,0.0003368,69.9982,217.0778,268.8861,91.1949,7.3144e-06,6.67e-06,0.0,0 STARLINK-5196,1 55319U 23010BC  23094.87136910  .00000667  00000-0  73144-5 0  9995,2 55319  69.9982 217.0778 0003368 268.8861  91.1949 15.69924771 13524,6737.249,91.724,361.383,356.845,0.0
55319.0,STARLINK-5196,PAYLOAD,2023-04-05 10:40:32,15.69928317,0.0003293,69.9995,215.4683,260.8257,99.2566,2.2736e-05,2.522e-05,0.0,0 STARLINK-5196,1 55319U 23010BC  23095.44481865  .00002522  00000-0  22736-4 0  9993,2 55319  69.9995 215.4683 0003293 260.8257  99.2566 15.69928317 13617,6737.239,91.724,361.323,356.886,0.0
55319.0,STARLINK-5196,PAYLOAD,2023-04-05 16:47:32,15.69936431,0.000328,69.9981,214.7494,253.4713,106.6122,1.5988e-05,1.711e-05,0.0,0 STARLINK-5196,1 55319U 23010BC  23095.69967757  .00001711  00000-0  15988-4 0  9999,2 55319  69.9981 214.7494 0003280 253.4713 106.6122 15.69936431 12464,6737.216,91.723,361.291,356.871,0.0
55319.0,STARLINK-5196,PAYLOAD,2023-04-06 09:36:49,15.69920013,0.0003554,69.9977,212.779,264.488,95.591,5.551e-06,4.55e-06,0.0,0 STARLINK-5196,1 55319U 23010BC  23096.40057201  .00000455  00000-0  55510-5 0  9993,2 55319  69.9977 212.7790 0003554 264.4880  95.5910 15.69920013 12579,6737.263,91.724,361.522,356.733,0.0
55319.0,STARLINK-5196,PAYLOAD,2023-04-06 11:08:34,15.69919952,0.0003267,69.998,212.6001,256.9699,103.1132,6.6495e-06,5.87e-06,0.0,0 STARLINK-5196,1 55319U 23010BC  23096.46428897  .00000587  00000-0  66495-5 0  9992,2 55319  69.9980 212.6001 0003267 256.9699 103.1132 15.69919952 13777,6737.263,91.724,361.329,356.927,0.0
55319.0,STARLINK-5196,PAYLOAD,2023-04-07 10:04:50,15.69931487,0.0003257,70.0003,209.9157,262.9095,97.1731,8.0713e-06,7.58e-06,0.0,0 STARLINK-5196,1 55319U 23010BC  23097.42003453  .00000758  00000-0  80713-5 0  9995,2 55319  70.0003 209.9157 0003257 262.9095  97.1731 15.69931487 12732,6737.23,91.724,361.289,356.901,0.0
55319.0,STARLINK-5196,PAYLOAD,2023-04-08 05:57:37,15.69906384,0.0003292,70.0005,207.5887,266.3638,93.7181,6.0505e-05,7.063e-05,0.0,0 STARLINK-5196,1 55319U 23010BC  23098.24835204  .00007063  00000-0  60505-4 0  9995,2 55319  70.0005 207.5887 0003292 266.3638  93.7181 15.69906384 12861,6737.302,91.725,361.385,356.949,0.0
